NORAD_CAT_ID,OBJECT_NAME,OBJECT_TYPE,EPOCH,MEAN_MOTION,ECCENTRICITY,INCLINATION,RA_OF_ASC_NODE,ARG_OF_PERICENTER,MEAN_ANOMALY,BSTAR,MEAN_MOTION_DOT,MEAN_MOTION_DDOT,TLE_LINE0,TLE_LINE1,TLE_LINE2,SEMIMAJOR_AXIS,PERIOD,APOGEE,PERIGEE,DECAYED
51737.0,STARLINK-3509,PAYLOAD,2022-02-25 16:00:01,15.77750278,7.47e-05,53.2179,119.4527,68.7375,77.5868,-0.0053003,-0.00825255,0.0,0 STARLINK-3509,1 51737U 22016Z   22056.66668981 -.00825255  00000-0 -53003-2 0  9991,2 51737  53.2179 119.4527 0000747  68.7375  77.5868 15.77750278  1860,6714.953,91.269,337.32,336.31699999999995,0.0
51737.0,STARLINK-3509,PAYLOAD,2022-02-25 22:00:00,15.77314748,0.0001052,53.2176,118.2053,77.0493,49.8045,-0.0057597,-0.00874304,0.0,0 STARLINK-3509,1 51737U 22016Z   22056.91667824 -.00874304  00000-0 -57597-2 0  9995,2 51737  53.2176 118.2053 0001052  77.0493  49.8045 15.77314748  1364,6716.189,91.294,338.761,337.348,0.0
51737.0,STARLINK-3509,PAYLOAD,2022-02-26 06:00:00,15.76685623,0.0001169,53.2177,116.5466,83.8675,136.4738,-0.0059232,-0.00874191,0.0,0 STARLINK-3509,1 51737U 22016Z   22057.25001157 -.00874191  00000-0 -59232-2 0  9996,2 51737  53.2177 116.5466 0001169  83.8675 136.4738 15.76685623  1959,6717.976,91.331,340.626,339.055,0.0
51737.0,STARLINK-3509,PAYLOAD,2022-02-26 14:00:01,15.76055409,0.0001043,53.2174,114.8912,79.256,233.8159,-0.0060815,-0.00872821,0.0,0 STARLINK-3509,1 51737U 22016Z   22057.58334491 -.00872821  00000-0 -60815-2 0  9999,2 51737  53.2174 114.8912 0001043  79.2560 233.8159 15.76055409  1464,6719.767,91.367,342.332,340.931,0.0
51737.0,STARLINK-3509,PAYLOAD,2022-02-26 22:00:00,15.75426128,9.49e-05,53.2174,113.2335,78.8829,326.1659,-0.0062512,-0.00872535,0.0,0 STARLINK-3509,1 51737U 22016Z   22057.91667824 -.00872535  00000-0 -62512-2 0  9993,2 51737  53.2174 113.2335 0000949  78.8829 326.1659 15.75426128  1520,6721.556,91.404,344.059,342.783,0.0
51737.0,STARLINK-3509,PAYLOAD,2022-02-27 06:00:00,15.74797655,0.0001245,53.2175,111.5794,60.1214,76.1457,-0.0064344,-0.00873601,0.0,0 STARLINK-3509,1 51737U 22016Z   22058.25001157 -.00873601  00000-0 -64344-2 0  9992,2 51737  53.2175 111.5794 0001245  60.1214  76.1457 15.74797655  2101,6723.344,91.44,346.046,344.372,0.0
51737.0,STARLINK-3509,PAYLOAD,2022-02-27 14:00:01,15.74165716,0.0001236,53.2176,109.9284,65.594,161.136,-0.0065859,-0.00870159,0.0,0 STARLINK-3509,1 51737U 22016Z   22058.58334491 -.00870159  00000-0 -65859-2 0  9995,2 51737  53.2176 109.9284 0001236  65.5940 161.1360 15.74165716  1623,6725.143,91.477,347.84,346.177,0.0
51737.0,STARLINK-3509,PAYLOAD,2022-02-27 22:00:00,15.73353588,0.0001212,53.2177,108.2752,68.9783,247.4865,-0.0016375999999999,-0.00225863,0.0,0 STARLINK-3509,1 51737U 22016Z   22058.91667824 -.00225863  00000-0 -16376-2 0  9997,2 51737  53.2177 108.2752 0001212  68.9783 247.4865 15.73353588  2211,6727.456999999999,91.524,350.13800000000015,348.50699999999995,0.0
51737.0,STARLINK-3509,PAYLOAD,2022-02-28 06:00:00,15.73207347,0.0001214,53.2177,106.6261,57.795,347.68,-3.9582e-05,-6.172e-05,0.0,0 STARLINK-3509,1 51737U 22016Z   22059.25001157 -.00006172  00000-0 -39582-4 0  9992,2 51737  53.2177 106.6261 0001214  57.7950 347.6800 15.73207347  2260,6727.874,91.533,350.556,348.922,0.0
51737.0,STARLINK-3509,PAYLOAD,2022-02-28 14:00:01,15.73157302,0.00018,53.2188,104.9845,70.5286,63.8703,0.00064986,0.00091415,0.0,0 STARLINK-3509,1 51737U 22016Z   22059.58334491  .00091415  00000-0  64986-3 0  9995,2 51737  53.2188 104.9845 0001800  70.5286  63.8703 15.73157302  1787,6728.017,91.536,351.093,348.671,0.0
51737.0,STARLINK-3509,PAYLOAD,2022-02-28 22:00:00,15.73205344,0.0001708,53.2187,103.333,77.415,145.9161,0.00052154,0.00073233,0.0,0 STARLINK-3509,1 51737U 22016Z   22059.91667824  .00073233  00000-0  52154-3 0  9993,2 51737  53.2187 103.3330 0001708  77.4150 145.9161 15.73205344  1837,6727.88,91.533,350.894,348.596,0.0
51737.0,STARLINK-3509,PAYLOAD,2022-03-01 06:00:00,15.7326331,0.0001764,53.2189,101.6841,77.1527,235.1202,6.787899999999999e-05,8.941e-05,0.0,0 STARLINK-3509,1 51737U 22016Z   22060.25001157  .00008941  00000-0  67879-4 0  9998,2 51737  53.2189 101.6841 0001764  77.1527 235.1202 15.73263310  2425,6727.715,91.529,350.766,348.39300000000014,0.0
51737.0,STARLINK-3509,PAYLOAD,2022-03-01 14:00:01,15.73287873,0.0001652,53.2187,100.036,66.5373,334.7373,-0.00044998,-0.00063537,0.0,0 STARLINK-3509,1 51737U 22016Z   22060.58334491 -.00063537  00000-0 -44998-3 0  9994,2 51737  53.2187 100.0360 0001652  66.5373 334.7373 15.73287873  1940,6727.645,91.528,350.621,348.398,0.0
51737.0,STARLINK-3509,PAYLOAD,2022-03-01 22:00:01,15.73183289,0.0001278,53.2187,98.3843,71.4749,58.8861,0.00019944,0.00027441,0.0,0 STARLINK-3509,1 51737U 22016Z   22060.91668981  .00027441  00000-0  19944-3 0  9990,2 51737  53.2187  98.3843 0001278  71.4749  58.8861 15.73183289  2528,6727.943,91.534,350.668,348.9480000000001,0.0
51737.0,STARLINK-3509,PAYLOAD,2022-03-02 14:00:01,15.73241566,0.0001304,53.2178,95.0873,58.2673,249.8905,-0.00016753,-0.00024106,0.0,0 STARLINK-3509,1 51737U 22016Z   22061.58334491 -.00024106  00000-0 -16753-3 0  9992,2 51737  53.2178  95.0873 0001304  58.2673 249.8905 15.73241566  2102,6727.776999999999,91.531,350.519,348.764,0.0
51737.0,STARLINK-3509,PAYLOAD,2022-03-02 22:00:00,15.73170503,0.000114,53.2178,93.4356,69.7867,327.3448,0.00042492,0.00059361,0.0,0 STARLINK-3509,1 51737U 22016Z   22061.91667824  .00059361  00000-0  42492-3 0  9996,2 51737  53.2178  93.4356 0001140  69.7867 327.3448 15.73170503  2689,6727.979,91.535,350.611,349.077,0.0
51737.0,STARLINK-3509,PAYLOAD,2022-03-03 14:00:01,15.73164379,0.0001466,53.2179,90.1386,61.6812,153.281,0.00044745,0.0006255,0.0,0 STARLINK-3509,1 51737U 22016Z   22062.58334491  .00062550  00000-0  44745-3 0  9998,2 51737  53.2179  90.1386 0001466  61.6812 153.2810 15.73164379  2794,6727.996999999999,91.535,350.848,348.875,0.0
51737.0,STARLINK-3509,PAYLOAD,2022-03-03 18:00:00,15.73173979,0.0001679,53.2174,89.3065,68.692,10.6068,0.00036499,0.00050858,0.0,0 STARLINK-3509,1 51737U 22016Z   22062.75001157  .00050858  00000-0  36499-3 0  9992,2 51737  53.2174  89.3065 0001679  68.6920  10.6068 15.73173979  2816,6727.969,91.535,350.964,348.705,0.0
51737.0,STARLINK-3509,PAYLOAD,2022-03-03 22:00:00,15.73203793,0.0001626999999999,53.2175,88.4801,71.9071,231.8467,8.6251e-06,5.9e-06,0.0,0 STARLINK-3509,1 51737U 22016Z   22062.91667824  .00000590  00000-0  86251-5 0  9990,2 51737  53.2175  88.4801 0001627  71.9071 231.8467 15.73203793  2315,6727.884,91.533,350.844,348.655,0.0
51737.0,STARLINK-3509,PAYLOAD,2022-03-04 06:00:02,15.73257208,0.0001496999999999,53.2179,86.8386,66.8781,326.0082,-6.306600000000001e-05,-9.483e-05,0.0,0 STARLINK-3509,1 51737U 22016Z   22063.25002315 -.00009483  00000-0 -63066-4 0  9996,2 51737  53.2179  86.8386 0001497  66.8781 326.0082 15.73257208  2898,6727.732,91.53,350.60400000000016,348.59,0.0
51737.0,STARLINK-3509,PAYLOAD,2022-03-04 14:00:01,15.73256988,0.0001456,53.2173,85.1897,60.6967,61.1889,-0.0001694,-0.00024384,0.0,0 STARLINK-3509,1 51737U 22016Z   22063.58335648 -.00024384  00000-0 -16940-3 0  9995,2 51737  53.2173  85.1897 0001456  60.6967  61.1889 15.73256988  2418,6727.733,91.53,350.577,348.61800000000005,0.0
51737.0,STARLINK-3509,PAYLOAD,2022-03-04 22:00:00,15.73247595,0.0001295,53.2174,83.538,72.2299,138.5786,-0.0001195,-0.00017391,0.0,0 STARLINK-3509,1 51737U 22016Z   22063.91667824 -.00017391  00000-0 -11950-3 0  9992,2 51737  53.2174  83.5380 0001295  72.2299 138.5786 15.73247595  2460,6727.759,91.53,350.496,348.75300000000016,0.0
51737.0,STARLINK-3509,PAYLOAD,2022-03-05 06:00:00,15.7323073,0.0001419,53.2177,81.8898,68.6965,231.0948,-0.00058267,-0.00081712,0.0,0 STARLINK-3509,1 51737U 22016Z   22064.25001157 -.00081712  00000-0 -58267-3 0  9991,2 51737  53.2177  81.8898 0001419  68.6965 231.0948 15.73230730  2524,6727.808000000001,91.531,350.62699999999984,348.718,0.0
51737.0,STARLINK-3509,PAYLOAD,2022-03-05 14:00:01,15.7323174,0.0001319,53.2178,80.2409,57.3032,331.4354,-0.00035512,-0.00050229,0.0,0 STARLINK-3509,1 51737U 22016Z   22064.58334491 -.00050229  00000-0 -35512-3 0  9994,2 51737  53.2178  80.2409 0001319  57.3032 331.4354 15.73231740  2578,6727.805,91.531,350.557,348.782,0.0
51737.0,STARLINK-3509,PAYLOAD,2022-03-05 16:00:00,15.73245341,0.0001276,53.2179,79.8278,60.7678,80.2044,-0.0006617999999999,-0.00092661,0.0,0 STARLINK-3509,1 51737U 22016Z   22064.66667824 -.00092661  00000-0 -66180-3 0  9993,2 51737  53.2179  79.8278 0001276  60.7678  80.2044 15.73245341  3122,6727.766,91.531,350.48900000000015,348.772,0.0
51737.0,STARLINK-3509,PAYLOAD,2022-03-05 22:00:01,15.73181881,0.0001225,53.2179,78.5894,68.9371,48.8188,0.0001218,0.00016494,0.0,0 STARLINK-3509,1 51737U 22016Z   22064.91668981  .00016494  00000-0  12180-3 0  9995,2 51737  53.2179  78.5894 0001225  68.9371  48.8188 15.73181881  2627,6727.946999999999,91.534,350.636,348.98800000000006,0.0
51737.0,STARLINK-3509,PAYLOAD,2022-03-06 06:00:00,15.73177992,0.0001495,53.2179,76.9415,65.6726,140.965,0.00017183,0.0002354,0.0,0 STARLINK-3509,1 51737U 22016Z   22065.25001157  .00023540  00000-0  17183-3 0  9997,2 51737  53.2179  76.9415 0001495  65.6726 140.9650 15.73177992  3217,6727.958000000001,91.534,350.829,348.81699999999995,0.0
51737.0,STARLINK-3509,PAYLOAD,2022-03-06 14:00:01,15.73222233,0.0001485,53.2174,75.2923,64.0943,231.4487,0.00030217,0.0004204,0.0,0 STARLINK-3509,1 51737U 22016Z   22065.58334491  .00042040  00000-0  30217-3 0  9992,2 51737  53.2174  75.2923 0001485  64.0943 231.4487 15.73222233  2730,6727.831999999999,91.532,350.696,348.6980000000001,0.0
51737.0,STARLINK-3509,PAYLOAD,2022-03-06 22:00:00,15.73220061,0.0001324,53.2176,73.6409,75.3741,309.1271,-0.00025355,-0.00036082,0.0,0 STARLINK-3509,1 51737U 22016Z   22065.91667824 -.00036082  00000-0 -25355-3 0  9996,2 51737  53.2176  73.6409 0001324  75.3741 309.1271 15.73220061  2782,6727.8380000000025,91.532,350.594,348.81199999999984,0.0
